STARLINK-4400           
1 53468U 22099D   26132.09152428  .00007377  00000+0  51528-3 0  9990
2 53468  97.5036 252.4716 0000091  57.6204 302.5031 15.05618716205516
STARLINK-4621           
1 53676U 22105AE  26132.09429897  .00000139  00000+0  13758-4 0  9999
2 53676  97.5061  12.4837 0003272  53.1787 306.9739 15.05649549202770
SHERPA-LTC2             
1 53754U 22107BG  26131.93427586  .00004227  00000+0  22117-3 0  9993
2 53754  53.2349  13.7515 0397786 124.7411 239.1699 14.69173968197217
CENTISPACE-1 S3         
1 53757U 22108A   26132.16041277  .00000153  00000+0  68866-4 0  9998
2 53757  53.5321 204.2283 0008263 244.6080 115.4040 14.61218780196269
CENTISPACE-1 S4         
1 53758U 22108B   26132.16137897  .00000260  00000+0  89272-4 0  9996
2 53758  53.5296 201.9117 0008032 230.1505 129.8764 14.61891560196295
BLUEWALKER-3            
1 53807U 22111AL  26131.91986666  .00002908  00000+0  87472-4 0  9994
2 53807  53.2286 204.1731 0007368  67.5436 292.6349 15.37831088204627
YUNHAI-1 03             
1 53877U 22115A   26132.22086131  .00000255  00000+0  10995-3 0  9996
2 53877  98.5537 130.8260 0005417 141.0394 219.1181 14.32692734190361
CENTISPACE-1 S5         
1 54020U 22126A   26132.14492303  .00000482  00000+0  13002-3 0  9996
2 54020  55.0002 357.1823 0012275   0.5889 359.5117 14.62947129191761
CENTISPACE-1 S6         
1 54021U 22126B   26132.18879148  .00000388  00000+0  11341-3 0  9996
2 54021  55.0005 358.7067 0014125 359.5857   0.5122 14.62237489191737
OTB-3-GAZELLE           
1 54023U 22127A   26132.20255003  .00000094  00000+0  41365-4 0  9994
2 54023  98.3941 124.4572 0012022 300.4126  59.5876 14.42661099189176
ASO-S                   
1 54029U 22129A   26132.21459854  .00000104  00000+0  36661-4 0  9998
2 54029  98.2756 137.8100 0013823 198.1133 161.9572 14.52043579190205
HJ-2E                   
1 54035U 22132A   26132.19142372  .00004501  00000+0  20026-3 0  9992
2 54035  97.3809 137.2327 0022236 132.3146 227.9979 15.21767848198940
COSMOS 2561             
1 54109U 22137A   26132.16630242  .00008913  00000+0  15592-3 0  9997
2 54109  96.9225 192.5305 0010979 150.0386 210.1497 15.50778019200760
GONETS-M 23             
1 54150U 22139A   26132.11965535  .00000037  00000+0  19478-3 0  9992
2 54150  82.5099  10.7101 0020808 302.5134  57.3935 12.42889203161162
GONETS-M 24             
1 54151U 22139B   26132.17327756  .00000020  00000+0  73375-4 0  9995
2 54151  82.5002   9.7614 0016192 313.8939  46.0803 12.42889733161171
GONETS-M 25             
1 54152U 22139C   26132.15962675  .00000014  00000+0  29588-4 0  9999
2 54152  82.5076  10.4367 0020081 311.6894  48.2466 12.42888983161170
SKIF-D                  
1 54153U 22139D   26131.48282497  .00000036  00000+0  00000+0 0  9999
2 54153  89.9557  96.6788 0007415 215.3181 144.6708  5.00438845 62279
MATS                    
1 54227U 22147A   26131.95218295  .00002750  00000+0  19731-3 0  9997
2 54227  97.6826 133.7126 0011635 329.0019  31.0519 15.05125941192311
JILIN-1 GAOFEN 03D54    
1 54254U 22155D   26132.19529301  .00119424  00000+0  56409-3 0  9996
2 54254  97.6081 281.0265 0002096 165.5047 194.6281 15.82714868194580
EOS-6 (OCEANSAT-3)      
1 54361U 22158A   26132.20528751  .00000135  00000+0  49199-4 0  9995
2 54361  98.3525 230.8808 0002248  88.9011 271.2439 14.47019054182638
DONGPO 09               
1 54685U 22167D   26132.18654981  .00007219  00000+0  21156-3 0  9998
2 54685  97.6875 301.6170 0001427 225.7912 134.3214 15.35530443189922
DONGPO 08               
1 54686U 22167E   26132.17028191  .00006162  00000+0  19624-3 0  9999
2 54686  97.6837 298.9463 0006946 298.0452  62.0087 15.32933082189802
2022-167F               
1 54687U 22167F   26132.18145595  .00099501  00000+0  51263-3 0  9993
2 54687  97.6177 316.0048 0003170 182.4568 177.6685 15.80881407191122
DONGPO 10               
1 54689U 22167H   26132.19558565  .00006731  00000+0  20906-3 0  9994
2 54689  97.6920 300.8394 0004127 230.4752 129.6125 15.33713455189844
JILIN-1 GAOFEN 03D48    
1 54695U 22167P   26132.21082352  .00007024  00000+0  21303-3 0  9998
2 54695  97.6853 300.2224 0005372 236.9083 123.1643 15.34445794189879
STAR VIBE               
1 55009U 23001A   26132.09167299  .00008912  00000+0  21369-3 0  9995
2 55009  97.3194 196.4340 0004599 230.9767 129.1071 15.41621241186667
BRO-8                   
1 55011U 23001C   26132.16928935  .00019969  00000+0  39819-3 0  9991
2 55011  97.3240 196.8924 0004906 237.7113 122.3662 15.46892811186632
CONNECTA T1.2           
1 55012U 23001D   26132.13162572  .00022646  00000+0  43220-3 0  9993
2 55012  97.3300 202.2521 0005887 209.8616 150.2300 15.48133248186961
BIRKELAND               
1 55015U 23001G   26132.14276310  .00005491  00000+0  14232-3 0  9993
2 55015  97.3365 200.0355 0005686 222.2044 137.8765 15.39431753186808
ION SCV-008             
1 55051U 23001AU  26132.22804346  .00004217  00000+0  15613-3 0  9997
2 55051  97.5685 227.9622 0016166 136.2305 224.0219 15.28120766185842
