OBJECT_NAME,OBJECT_ID,EPOCH,MEAN_MOTION,ECCENTRICITY,INCLINATION,RA_OF_ASC_NODE,ARG_OF_PERICENTER,MEAN_ANOMALY,EPHEMERIS_TYPE,CLASSIFICATION_TYPE,NORAD_CAT_ID,ELEMENT_SET_NO,REV_AT_EPOCH,BSTAR,MEAN_MOTION_DOT,MEAN_MOTION_DDOT
STARLINK-4400,2022-099D,2026-05-12T02:11:47.697792,15.05618716,.0000091,97.5036,252.4716,57.6204,302.5031,0,U,53468,999,20551,.51528E-3,.7377E-4,0
STARLINK-4621,2022-105AE,2026-05-12T02:15:47.431008,15.05649549,.0003272,97.5061,12.4837,53.1787,306.9739,0,U,53676,999,20277,.13758E-4,.139E-5,0
SHERPA-LTC2,2022-107BG,2026-05-11T22:25:21.434304,14.69173968,.0397786,53.2349,13.7515,124.7411,239.1699,0,U,53754,999,19721,.22117E-3,.4227E-4,0
CENTISPACE-1 S3,2022-108A,2026-05-12T03:50:59.663328,14.61218780,.0008263,53.5321,204.2283,244.6080,115.4040,0,U,53757,999,19626,.68866E-4,.153E-5,0
CENTISPACE-1 S4,2022-108B,2026-05-12T03:52:23.143008,14.61891560,.0008032,53.5296,201.9117,230.1505,129.8764,0,U,53758,999,19629,.89272E-4,.26E-5,0
BLUEWALKER-3,2022-111AL,2026-05-11T22:04:36.479424,15.37831088,.0007368,53.2286,204.1731,67.5436,292.6349,0,U,53807,999,20462,.87472E-4,.2908E-4,0
YUNHAI-1 03,2022-115A,2026-05-12T05:18:02.417184,14.32692734,.0005417,98.5537,130.8260,141.0394,219.1181,0,U,53877,999,19036,.10995E-3,.255E-5,0
CENTISPACE-1 S5,2022-126A,2026-05-12T03:28:41.349792,14.62947129,.0012275,55.0002,357.1823,0.5889,359.5117,0,U,54020,999,19176,.13002E-3,.482E-5,0
CENTISPACE-1 S6,2022-126B,2026-05-12T04:31:51.583872,14.62237489,.0014125,55.0005,358.7067,359.5857,0.5122,0,U,54021,999,19173,.11341E-3,.388E-5,0
OTB-3-GAZELLE,2022-127A,2026-05-12T04:51:40.322592,14.42661099,.0012022,98.3941,124.4572,300.4126,59.5876,0,U,54023,999,18917,.41365E-4,.94E-6,0
ASO-S,2022-129A,2026-05-12T05:09:01.313856,14.52043579,.0013823,98.2756,137.8100,198.1133,161.9572,0,U,54029,999,19020,.36661E-4,.104E-5,0
HJ-2E,2022-132A,2026-05-12T04:35:39.009408,15.21767848,.0022236,97.3809,137.2327,132.3146,227.9979,0,U,54035,999,19894,.20026E-3,.4501E-4,0
COSMOS 2561,2022-137A,2026-05-12T03:59:28.529088,15.50778019,.0010979,96.9225,192.5305,150.0386,210.1497,0,U,54109,999,20076,.15592E-3,.8913E-4,0
GONETS-M 23,2022-139A,2026-05-12T02:52:18.222240,12.42889203,.0020808,82.5099,10.7101,302.5134,57.3935,0,U,54150,999,16116,.19478E-3,.37E-6,0
GONETS-M 24,2022-139B,2026-05-12T04:09:31.181184,12.42889733,.0016192,82.5002,9.7614,313.8939,46.0803,0,U,54151,999,16117,.73375E-4,.2E-6,0
GONETS-M 25,2022-139C,2026-05-12T03:49:51.751200,12.42888983,.0020081,82.5076,10.4367,311.6894,48.2466,0,U,54152,999,16117,.29588E-4,.14E-6,0
SKIF-D,2022-139D,2026-05-11T11:35:16.077408,5.00438845,.0007415,89.9557,96.6788,215.3181,144.6708,0,U,54153,999,6227,0,.36E-6,0
MATS,2022-147A,2026-05-11T22:51:08.606880,15.05125941,.0011635,97.6826,133.7126,329.0019,31.0519,0,U,54227,999,19231,.19731E-3,.275E-4,0
JILIN-1 GAOFEN 03D54,2022-155D,2026-05-12T04:41:13.316064,15.82714868,.0002096,97.6081,281.0265,165.5047,194.6281,0,U,54254,999,19458,.56409E-3,.119424E-2,0
EOS-6 (OCEANSAT-3),2022-158A,2026-05-12T04:55:36.840864,14.47019054,.0002248,98.3525,230.8808,88.9011,271.2439,0,U,54361,999,18263,.49199E-4,.135E-5,0
DONGPO 09,2022-167D,2026-05-12T04:28:37.903584,15.35530443,.0001427,97.6875,301.6170,225.7912,134.3214,0,U,54685,999,18992,.21156E-3,.7219E-4,0
DONGPO 08,2022-167E,2026-05-12T04:05:12.357024,15.32933082,.0006946,97.6837,298.9463,298.0452,62.0087,0,U,54686,999,18980,.19624E-3,.6162E-4,0
2022-167F,2022-167F,2026-05-12T04:21:17.794080,15.80881407,.000317,97.6177,316.0048,182.4568,177.6685,0,U,54687,999,19112,.51263E-3,.99501E-3,0
DONGPO 10,2022-167H,2026-05-12T04:41:38.600160,15.33713455,.0004127,97.6920,300.8394,230.4752,129.6125,0,U,54689,999,18984,.20906E-3,.6731E-4,0
JILIN-1 GAOFEN 03D48,2022-167P,2026-05-12T05:03:35.152128,15.34445794,.0005372,97.6853,300.2224,236.9083,123.1643,0,U,54695,999,18987,.21303E-3,.7024E-4,0
STAR VIBE,2023-001A,2026-05-12T02:12:00.546336,15.41621241,.0004599,97.3194,196.4340,230.9767,129.1071,0,U,55009,999,18666,.21369E-3,.8912E-4,0
BRO-8,2023-001C,2026-05-12T04:03:46.599840,15.46892811,.0004906,97.3240,196.8924,237.7113,122.3662,0,U,55011,999,18663,.39819E-3,.19969E-3,0
CONNECTA T1.2,2023-001D,2026-05-12T03:09:32.462208,15.48133248,.0005887,97.3300,202.2521,209.8616,150.2300,0,U,55012,999,18696,.4322E-3,.22646E-3,0
BIRKELAND,2023-001G,2026-05-12T03:25:34.731840,15.39431753,.0005686,97.3365,200.0355,222.2044,137.8765,0,U,55015,999,18680,.14232E-3,.5491E-4,0
ION SCV-008,2023-001AU,2026-05-12T05:28:22.954944,15.28120766,.0016166,97.5685,227.9622,136.2305,224.0219,0,U,55051,999,18584,.15613E-3,.4217E-4,0
